[{"OBJECT_NAME":"FLOCK 4G-26","OBJECT_ID":"2025-009AA","EPOCH":"2026-03-09T19:19:02.910720","MEAN_MOTION":15.27281631,"ECCENTRICITY":0.0001988,"INCLINATION":97.4054,"RA_OF_ASC_NODE":151.3913,"ARG_OF_PERICENTER":299.1273,"MEAN_ANOMALY":60.9767,"EPHEMERIS_TYPE":0,"CLASSIFICATION_TYPE":"U","NORAD_CAT_ID":62633,"ELEMENT_SET_NO":999,"REV_AT_EPOCH":6373,"BSTAR":0.00042468806,"MEAN_MOTION_DOT":0.00011283,"MEAN_MOTION_DDOT":0},{"OBJECT_NAME":"STARLINK-34090","OBJECT_ID":"2025-099AA","EPOCH":"2026-03-09T06:51:12.828096","MEAN_MOTION":15.27579691,"ECCENTRICITY":0.00014427,"INCLINATION":43.0016,"RA_OF_ASC_NODE":175.1071,"ARG_OF_PERICENTER":278.2698,"MEAN_ANOMALY":81.799,"EPHEMERIS_TYPE":0,"CLASSIFICATION_TYPE":"U","NORAD_CAT_ID":63976,"ELEMENT_SET_NO":999,"REV_AT_EPOCH":4722,"BSTAR":0.00091973223,"MEAN_MOTION_DOT":0.00025133,"MEAN_MOTION_DDOT":0}]
