FLOCK 4G-26             
1 62633U 25009AA  26068.80489479  .00011283  00000+0  42469-3 0  9999
2 62633  97.4054 151.3913 0001988 299.1273  60.9767 15.27281631 63733
STARLINK-34090          
1 63976U 25099AA  26068.28556514  .00025133  00000+0  91973-3 0  9999
2 63976  43.0016 175.1071 0001442 278.2698  81.7990 15.27579691 47223
